H1 CPF 01  gfz 2022 02 13 13  5442 tandemx   
H2 1003001  6202 36605    2022 02 13 12 59 42 2022 02 18 00 00 42   120 1 1  0 0 0
H9
10 0 59625   6462.000000  0    2186729.793   5430983.271   3621596.264
10 0 59625   6582.000000  0    2523852.522   5749912.082   2825002.047
10 0 59625   6702.000000  0    2821503.510   5962755.110   1978665.504
10 0 59625   6822.000000  0    3072596.534   6066543.865   1097488.859
10 0 59625   6942.000000  0    3270834.512   6060351.983    196990.298
10 0 59625   7062.000000  0    3410857.329   5945297.595   -706976.890
10 0 59625   7182.000000  0    3488372.092   5724503.867  -1598511.973
10 0 59625   7302.000000  0    3500261.570   5403019.869  -2461954.086
10 0 59625   7422.000000  0    3444668.814   4987703.276  -3282164.283
10 0 59625   7542.000000  0    3321054.660   4487067.588  -4044795.121
10 0 59625   7662.000000  0    3130227.836   3911099.592  -4736540.953
10 0 59625   7782.000000  0    2874347.792   3271052.963  -5345366.565
10 0 59625   7902.000000  0    2556900.717   2579221.331  -5860709.525
10 0 59625   8022.000000  0    2182649.647   1848697.216  -6273653.672
10 0 59625   8142.000000  0    1757559.728   1093122.097  -6577071.721
10 0 59625   8262.000000  0    1288702.186    326433.120  -6765736.375
10 0 59625   8382.000000  0     784136.916   -437389.768  -6836402.233
10 0 59625   8502.000000  0     252774.498  -1184574.123  -6787855.090
10 0 59625   8622.000000  0    -295777.563  -1901796.637  -6620928.834
10 0 59625   8742.000000  0    -851383.553  -2576413.964  -6338493.627
10 0 59625   8862.000000  0   -1403562.575  -3196682.523  -5945412.702
10 0 59625   8982.000000  0   -1941681.271  -3751961.163  -5448466.580
10 0 59625   9102.000000  0   -2455154.652  -4232895.154  -4856248.004
10 0 59625   9222.000000  0   -2933653.089  -4631579.556  -4179025.285
10 0 59625   9342.000000  0   -3367310.200  -4941696.214  -3428573.772
10 0 59625   9462.000000  0   -3746927.008  -5158621.946  -2617979.201
10 0 59625   9582.000000  0   -4064169.005  -5279505.590  -1761414.517
10 0 59625   9702.000000  0   -4311750.711  -5303310.985   -873893.013
10 0 59625   9822.000000  0   -4483602.518  -5230824.262     28997.793
10 0 59625   9942.000000  0   -4575015.197  -5064624.544    931376.125
10 0 59625  10062.000000  0   -4582758.338  -4809017.933   1817354.202
10 0 59625  10182.000000  0   -4505168.438  -4469935.437   2671327.543
10 0 59625  10302.000000  0   -4342204.990  -4054798.603   3478257.874
10 0 59625  10422.000000  0   -4095473.776  -3572356.650   4223944.435
10 0 59625  10542.000000  0   -3768215.917  -3032498.445   4895278.380
10 0 59625  10662.000000  0   -3365263.546  -2446044.671   5480472.975
10 0 59625  10782.000000  0   -2892964.978  -1824527.359   5969267.641
10 0 59625  10902.000000  0   -2359080.376  -1179960.346   6353104.476
10 0 59625  11022.000000  0   -1772649.594   -524603.522   6625273.746
10 0 59625  11142.000000  0   -1143833.959    129272.559   6781023.934
10 0 59625  11262.000000  0    -483738.902    769614.760   6817637.880
10 0 59625  11382.000000  0     195781.780   1384808.619   6734477.761
10 0 59625  11502.000000  0     882338.284   1963888.770   6532995.844
10 0 59625  11622.000000  0    1563230.225   2496734.462   6216710.098
10 0 59625  11742.000000  0    2225680.501   2974246.418   5791146.507
10 0 59625  11862.000000  0    2857075.184   3388504.538   5263749.332
10 0 59625  11982.000000  0    3445206.548   3732903.519   4643757.079
10 0 59625  12102.000000  0    3978511.586   4002261.336   3942044.469
10 0 59625  12222.000000  0    4446303.021   4192901.758   3170938.456
10 0 59625  12342.000000  0    4838991.437   4302707.398   2344001.212
10 0 59625  12462.000000  0    5148285.097   4331139.714   1475789.385
10 0 59625  12582.000000  0    5367369.132   4279227.782    581593.351
10 0 59625  12702.000000  0    5491055.926   4149524.193   -322840.257
10 0 59625  12822.000000  0    5515902.268   3946029.536  -1221595.110
10 0 59625  12942.000000  0    5440291.852   3674087.555  -2098873.607
10 0 59625  13062.000000  0    5264480.583   3340253.406  -2939281.639
10 0 59625  13182.000000  0    4990604.315   2952139.847  -3728102.880
10 0 59625  13302.000000  0    4622649.826   2518245.710  -4451558.583
10 0 59625  13422.000000  0    4166388.399   2047768.659  -5097046.944
10 0 59625  13542.000000  0    3629276.155   1550409.095  -5653355.852
10 0 59625  13662.000000  0    3020323.981   1036170.505  -6110848.753
10 0 59625  13782.000000  0    2349939.295    515159.594  -6461621.097
10 0 59625  13902.000000  0    1629744.327     -2609.418  -6699624.650
10 0 59625  14022.000000  0     872375.449   -507403.064  -6820762.132
10 0 59625  14142.000000  0      91262.848   -989947.823  -6822950.876
10 0 59625  14262.000000  0    -699602.926  -1441595.711  -6706152.804
10 0 59625  14382.000000  0   -1485914.894  -1854474.826  -6472375.562
10 0 59625  14502.000000  0   -2253302.894  -2221624.272  -6125642.178
10 0 59625  14622.000000  0   -2987590.461  -2537110.101  -5671928.493
10 0 59625  14742.000000  0   -3675052.906  -2796121.790  -5119071.522
10 0 59625  14862.000000  0   -4302675.029  -2995048.263  -4476646.122
10 0 59625  14982.000000  0   -4858400.847  -3131530.175  -3755809.424
10 0 59625  15102.000000  0   -5331371.128  -3204487.681  -2969116.382
10 0 59625  15222.000000  0   -5712144.007  -3214122.951  -2130307.292
10 0 59625  15342.000000  0   -5992892.240  -3161896.398  -1254070.025
10 0 59625  15462.000000  0   -6167572.221  -3050477.081   -355781.707
10 0 59625  15582.000000  0   -6232059.941  -2883667.572    548765.773
10 0 59625  15702.000000  0   -6184250.453  -2666305.436   1443650.853
10 0 59625  15822.000000  0   -6024115.852  -2404142.972   2313112.789
10 0 59625  15942.000000  0   -5753719.877  -2103708.048   3141837.751
10 0 59625  16062.000000  0   -5377192.475  -1772151.039   3915235.961
10 0 59625  16182.000000  0   -4900660.292  -1417080.109   4619705.103
10 0 59625  16302.000000  0   -4332137.855  -1046390.127   5242869.998
10 0 59625  16422.000000  0   -3681385.133   -668090.664   5773798.109
10 0 59625  16542.000000  0   -2959732.194   -290135.024   6203189.005
10 0 59625  16662.000000  0   -2179873.787     79745.721   6523532.434
10 0 59625  16782.000000  0   -1355639.737    434198.355   6729232.651
10 0 59625  16902.000000  0    -501746.929    766391.351   6816700.098
10 0 59625  17022.000000  0     366463.871   1070145.208   6784409.702
10 0 59625  17142.000000  0    1233302.628   1340046.767   6632925.726
10 0 59625  17262.000000  0    2083012.637   1571546.034   6364892.479
10 0 59625  17382.000000  0    2900055.976   1761032.981   5984991.002
10 0 59625  17502.000000  0    3669398.874   1905894.052   5499863.141
10 0 59625  17622.000000  0    4376791.481   2004547.091   4918000.740
10 0 59625  17742.000000  0    5009035.817   2056455.058   4249603.869
10 0 59625  17862.000000  0    5554241.304   2062118.068   3506408.288
10 0 59625  17982.000000  0    6002058.076   2023041.473   2701478.870
10 0 59625  18102.000000  0    6343880.866   1941683.032   1848980.354
10 0 59625  18222.000000  0    6573024.238   1821379.246    963924.446
10 0 59625  18342.000000  0    6684858.636   1666251.732     61898.408
10 0 59625  18462.000000  0    6676906.609   1481098.045   -841217.863
10 0 59625  18582.000000  0    6548894.331   1271267.722  -1729540.712
10 0 59625  18702.000000  0    6302760.322   1042526.538  -2587468.870
10 0 59625  18822.000000  0    5942619.622    800913.867  -3399964.376
10 0 59625  18942.000000  0    5474684.040    552597.309  -4152819.525
10 0 59625  19062.000000  0    4907142.068    303727.209  -4832905.166
10 0 59625  19182.000000  0    4250002.480     60294.868  -5428394.334
10 0 59625  19302.000000  0    3514907.425   -172001.589  -5928959.490
10 0 59625  19422.000000  0    2714918.303   -387881.481  -6325942.487
10 0 59625  19542.000000  0    1864277.788   -582593.873  -6612492.854
10 0 59625  19662.000000  0     978156.172   -752015.743  -6783674.467
10 0 59625  19782.000000  0      72383.240   -892734.657  -6836542.799
10 0 59625  19902.000000  0    -836829.806  -1002113.764  -6770188.902
10 0 59625  20022.000000  0   -1733173.167  -1078339.642  -6585753.582
10 0 59625  20142.000000  0   -2600524.950  -1120451.658  -6286409.827
10 0 59625  20262.000000  0   -3423234.349  -1128352.679  -5877312.805
10 0 59625  20382.000000  0   -4186399.787  -1102801.441  -5365521.872
10 0 59625  20502.000000  0   -4876140.398  -1045386.050  -4759890.212
10 0 59625  20622.000000  0   -5479852.531   -958479.070  -4070922.775
10 0 59625  20742.000000  0   -5986448.019   -845175.080  -3310604.699
10 0 59625  20862.000000  0   -6386569.359   -709211.110  -2492200.431
10 0 59625  20982.000000  0   -6672774.890   -554871.585  -1630026.292
10 0 59625  21102.000000  0   -6839690.406   -386880.552   -739200.697
10 0 59625  21222.000000  0   -6884121.803   -210281.597    164626.059
10 0 59625  21342.000000  0   -6805122.477    -30309.545   1065553.239
10 0 59625  21462.000000  0   -6604018.160    147741.840   1947717.103
10 0 59625  21582.000000  0   -6284385.416    318653.490   2795579.654
10 0 59625  21702.000000  0   -5851984.288    477412.881   3594211.066
10 0 59625  21822.000000  0   -5314646.590    619340.458   4329559.073
10 0 59625  21942.000000  0   -4682124.291    740207.074   4988699.322
10 0 59625  22062.000000  0   -3965901.954    836339.808   5560062.035
10 0 59625  22182.000000  0   -3178979.253    904714.033   6033632.196
10 0 59625  22302.000000  0   -2335626.916    943029.162   6401121.099
10 0 59625  22422.000000  0   -1451121.333    949767.559   6656106.311
10 0 59625  22542.000000  0    -541463.092    924235.251   6794136.906
10 0 59625  22662.000000  0     376913.075    866583.223   6812805.245
10 0 59625  22782.000000  0    1287434.129    777809.357   6711785.976
10 0 59625  22902.000000  0    2173686.402    659741.455   6492841.487
99
